[
    {
        "Altitude(m)": 562519.3260022659,
        "Argument of Periapsis(deg)": 0.033114955553567506,
        "Eccentricity": 0.0,
        "Inclination(deg)": 53.0,
        "Latitude(deg)": -30.087686074441883,
        "Longitude(deg)": -9.72305535311369,
        "Mean Anomaly(deg)": -38.632835662112015,
        "RAAN(deg)": 119.95071684264008,
        "Satellite Name": "Starlink Shell 1 544",
        "Satellite Number": 544,
        "Semi-Major Axis(m)": 6931778.249405717,
        "Time(s)": 950
    },
    {
        "Altitude(m)": 562344.1585667278,
        "Argument of Periapsis(deg)": 0.03346353403307874,
        "Eccentricity": 0.0,
        "Inclination(deg)": 53.0,
        "Latitude(deg)": -29.634705455742278,
        "Longitude(deg)": -9.265313462594271,
        "Mean Anomaly(deg)": -38.00600445855532,
        "RAAN(deg)": 119.95019807256261,
        "Satellite Name": "Starlink Shell 1 544",
        "Satellite Number": 544,
        "Semi-Major Axis(m)": 6931778.249405717,
        "Time(s)": 960
    },
    {
        "Altitude(m)": 562169.2081609643,
        "Argument of Periapsis(deg)": 0.03381211251258998,
        "Eccentricity": 0.0,
        "Inclination(deg)": 53.0,
        "Latitude(deg)": -29.179819594435234,
        "Longitude(deg)": -8.812008393499612,
        "Mean Anomaly(deg)": -37.37917325499863,
        "RAAN(deg)": 119.94967930248512,
        "Satellite Name": "Starlink Shell 1 544",
        "Satellite Number": 544,
        "Semi-Major Axis(m)": 6931778.249405717,
        "Time(s)": 970
    },
    {
        "Altitude(m)": 561994.5400678873,
        "Argument of Periapsis(deg)": 0.034160690992101214,
        "Eccentricity": 0.0,
        "Inclination(deg)": 53.0,
        "Latitude(deg)": -28.72307853527238,
        "Longitude(deg)": -8.36303769256708,
        "Mean Anomaly(deg)": -36.752342051441886,
        "RAAN(deg)": 119.94916053240766,
        "Satellite Name": "Starlink Shell 1 544",
        "Satellite Number": 544,
        "Semi-Major Axis(m)": 6931778.249405717,
        "Time(s)": 980
    },
    {
        "Altitude(m)": 561820.2192979038,
        "Argument of Periapsis(deg)": 0.034509269471612446,
        "Eccentricity": 0.0,
        "Inclination(deg)": 53.0,
        "Latitude(deg)": -28.264531229379923,
        "Longitude(deg)": -7.918299693094308,
        "Mean Anomaly(deg)": -36.12551084788523,
        "RAAN(deg)": 119.9486417623302,
        "Satellite Name": "Starlink Shell 1 544",
        "Satellite Number": 544,
        "Semi-Major Axis(m)": 6931778.249405717,
        "Time(s)": 990
    }
]